STARLINK-2022           
1 47643U 21012Z   23312.12833083  .00048394  00000+0  32462-2 0  9995
2 47643  53.0544 278.9157 0001420  84.8469 275.2682 15.06392633151245
